<?xml version="1.0" encoding="UTF-8"?>
<ndm xmlns:xsi="http://www.w3.org/2001/XMLSchema-instance" xsi:noNamespaceSchemaLocation="https://sanaregistry.org/r/ndmxml_unqualified/ndmxml-2.0.0-master-2.0.xsd">
<omm id="CCSDS_OMM_VERS" version="2.0">
<header><CREATION_DATE/><ORIGINATOR/></header><body><segment><metadata><OBJECT_NAME>IRIDIUM 7</OBJECT_NAME><OBJECT_ID>1997-020B</OBJECT_ID><CENTER_NAME>EARTH</CENTER_NAME><REF_FRAME>TEME</REF_FRAME><TIME_SYSTEM>UTC</TIME_SYSTEM><MEAN_ELEMENT_THEORY>SGP4</MEAN_ELEMENT_THEORY></metadata><data><meanElements><EPOCH>2025-02-25T12:54:05.882976</EPOCH><MEAN_MOTION>14.35782255</MEAN_MOTION><ECCENTRICITY>.0002284</ECCENTRICITY><INCLINATION>86.3952</INCLINATION><RA_OF_ASC_NODE>223.6446</RA_OF_ASC_NODE><ARG_OF_PERICENTER>95.6283</ARG_OF_PERICENTER><MEAN_ANOMALY>264.5174</MEAN_ANOMALY></meanElements><tleParameters><EPHEMERIS_TYPE>0</EPHEMERIS_TYPE><CLASSIFICATION_TYPE>U</CLASSIFICATION_TYPE><NORAD_CAT_ID>24793</NORAD_CAT_ID><ELEMENT_SET_NO>999</ELEMENT_SET_NO><REV_AT_EPOCH>45609</REV_AT_EPOCH><BSTAR>.37614E-3</BSTAR><MEAN_MOTION_DOT>.1107E-4</MEAN_MOTION_DOT><MEAN_MOTION_DDOT>0</MEAN_MOTION_DDOT></tleParameters></data></segment></body></omm>
<omm id="CCSDS_OMM_VERS" version="2.0">
<header><CREATION_DATE/><ORIGINATOR/></header><body><segment><metadata><OBJECT_NAME>IRIDIUM 5</OBJECT_NAME><OBJECT_ID>1997-020D</OBJECT_ID><CENTER_NAME>EARTH</CENTER_NAME><REF_FRAME>TEME</REF_FRAME><TIME_SYSTEM>UTC</TIME_SYSTEM><MEAN_ELEMENT_THEORY>SGP4</MEAN_ELEMENT_THEORY></metadata><data><meanElements><EPOCH>2025-02-25T11:58:16.111776</EPOCH><MEAN_MOTION>14.92730527</MEAN_MOTION><ECCENTRICITY>.0112612</ECCENTRICITY><INCLINATION>86.3933</INCLINATION><RA_OF_ASC_NODE>135.1889</RA_OF_ASC_NODE><ARG_OF_PERICENTER>177.8609</ARG_OF_PERICENTER><MEAN_ANOMALY>182.3126</MEAN_ANOMALY></meanElements><tleParameters><EPHEMERIS_TYPE>0</EPHEMERIS_TYPE><CLASSIFICATION_TYPE>U</CLASSIFICATION_TYPE><NORAD_CAT_ID>24795</NORAD_CAT_ID><ELEMENT_SET_NO>999</ELEMENT_SET_NO><REV_AT_EPOCH>46879</REV_AT_EPOCH><BSTAR>.11149E-2</BSTAR><MEAN_MOTION_DOT>.13066E-3</MEAN_MOTION_DOT><MEAN_MOTION_DDOT>0</MEAN_MOTION_DDOT></tleParameters></data></segment></body></omm>
<omm id="CCSDS_OMM_VERS" version="2.0">
<header><CREATION_DATE/><ORIGINATOR/></header><body><segment><metadata><OBJECT_NAME>IRIDIUM 4</OBJECT_NAME><OBJECT_ID>1997-020E</OBJECT_ID><CENTER_NAME>EARTH</CENTER_NAME><REF_FRAME>TEME</REF_FRAME><TIME_SYSTEM>UTC</TIME_SYSTEM><MEAN_ELEMENT_THEORY>SGP4</MEAN_ELEMENT_THEORY></metadata><data><meanElements><EPOCH>2025-02-25T20:52:43.535712</EPOCH><MEAN_MOTION>14.36692506</MEAN_MOTION><ECCENTRICITY>.0002042</ECCENTRICITY><INCLINATION>86.3956</INCLINATION><RA_OF_ASC_NODE>220.4561</RA_OF_ASC_NODE><ARG_OF_PERICENTER>95.8925</ARG_OF_PERICENTER><MEAN_ANOMALY>264.2505</MEAN_ANOMALY></meanElements><tleParameters><EPHEMERIS_TYPE>0</EPHEMERIS_TYPE><CLASSIFICATION_TYPE>U</CLASSIFICATION_TYPE><NORAD_CAT_ID>24796</NORAD_CAT_ID><ELEMENT_SET_NO>999</ELEMENT_SET_NO><REV_AT_EPOCH>45651</REV_AT_EPOCH><BSTAR>.35034E-3</BSTAR><MEAN_MOTION_DOT>.1051E-4</MEAN_MOTION_DOT><MEAN_MOTION_DDOT>0</MEAN_MOTION_DDOT></tleParameters></data></segment></body></omm>
<omm id="CCSDS_OMM_VERS" version="2.0">
<header><CREATION_DATE/><ORIGINATOR/></header><body><segment><metadata><OBJECT_NAME>IRIDIUM 914</OBJECT_NAME><OBJECT_ID>1997-030A</OBJECT_ID><CENTER_NAME>EARTH</CENTER_NAME><REF_FRAME>TEME</REF_FRAME><TIME_SYSTEM>UTC</TIME_SYSTEM><MEAN_ELEMENT_THEORY>SGP4</MEAN_ELEMENT_THEORY></metadata><data><meanElements><EPOCH>2025-02-25T13:23:14.406432</EPOCH><MEAN_MOTION>14.40680634</MEAN_MOTION><ECCENTRICITY>.0001398</ECCENTRICITY><INCLINATION>86.3914</INCLINATION><RA_OF_ASC_NODE>229.5262</RA_OF_ASC_NODE><ARG_OF_PERICENTER>144.8445</ARG_OF_PERICENTER><MEAN_ANOMALY>215.2847</MEAN_ANOMALY></meanElements><tleParameters><EPHEMERIS_TYPE>0</EPHEMERIS_TYPE><CLASSIFICATION_TYPE>U</CLASSIFICATION_TYPE><NORAD_CAT_ID>24836</NORAD_CAT_ID><ELEMENT_SET_NO>999</ELEMENT_SET_NO><REV_AT_EPOCH>45315</REV_AT_EPOCH><BSTAR>.41393E-3</BSTAR><MEAN_MOTION_DOT>.134E-4</MEAN_MOTION_DOT><MEAN_MOTION_DDOT>0</MEAN_MOTION_DDOT></tleParameters></data></segment></body></omm>
<omm id="CCSDS_OMM_VERS" version="2.0">
<header><CREATION_DATE/><ORIGINATOR/></header><body><segment><metadata><OBJECT_NAME>IRIDIUM 16</OBJECT_NAME><OBJECT_ID>1997-030F</OBJECT_ID><CENTER_NAME>EARTH</CENTER_NAME><REF_FRAME>TEME</REF_FRAME><TIME_SYSTEM>UTC</TIME_SYSTEM><MEAN_ELEMENT_THEORY>SGP4</MEAN_ELEMENT_THEORY></metadata><data><meanElements><EPOCH>2025-02-25T15:05:33.838368</EPOCH><MEAN_MOTION>14.38534113</MEAN_MOTION><ECCENTRICITY>.000423</ECCENTRICITY><INCLINATION>86.3980</INCLINATION><RA_OF_ASC_NODE>252.1345</RA_OF_ASC_NODE><ARG_OF_PERICENTER>80.6820</ARG_OF_PERICENTER><MEAN_ANOMALY>279.4857</MEAN_ANOMALY></meanElements><tleParameters><EPHEMERIS_TYPE>0</EPHEMERIS_TYPE><CLASSIFICATION_TYPE>U</CLASSIFICATION_TYPE><NORAD_CAT_ID>24841</NORAD_CAT_ID><ELEMENT_SET_NO>999</ELEMENT_SET_NO><REV_AT_EPOCH>45096</REV_AT_EPOCH><BSTAR>.33296E-3</BSTAR><MEAN_MOTION_DOT>.1037E-4</MEAN_MOTION_DOT><MEAN_MOTION_DDOT>0</MEAN_MOTION_DDOT></tleParameters></data></segment></body></omm>
<omm id="CCSDS_OMM_VERS" version="2.0">
<header><CREATION_DATE/><ORIGINATOR/></header><body><segment><metadata><OBJECT_NAME>IRIDIUM 911</OBJECT_NAME><OBJECT_ID>1997-030G</OBJECT_ID><CENTER_NAME>EARTH</CENTER_NAME><REF_FRAME>TEME</REF_FRAME><TIME_SYSTEM>UTC</TIME_SYSTEM><MEAN_ELEMENT_THEORY>SGP4</MEAN_ELEMENT_THEORY></metadata><data><meanElements><EPOCH>2025-02-25T14:45:49.877568</EPOCH><MEAN_MOTION>14.47392744</MEAN_MOTION><ECCENTRICITY>.0016168</ECCENTRICITY><INCLINATION>86.4408</INCLINATION><RA_OF_ASC_NODE>251.0252</RA_OF_ASC_NODE><ARG_OF_PERICENTER>107.4217</ARG_OF_PERICENTER><MEAN_ANOMALY>252.8756</MEAN_ANOMALY></meanElements><tleParameters><EPHEMERIS_TYPE>0</EPHEMERIS_TYPE><CLASSIFICATION_TYPE>U</CLASSIFICATION_TYPE><NORAD_CAT_ID>24842</NORAD_CAT_ID><ELEMENT_SET_NO>999</ELEMENT_SET_NO><REV_AT_EPOCH>45894</REV_AT_EPOCH><BSTAR>.39819E-3</BSTAR><MEAN_MOTION_DOT>.1482E-4</MEAN_MOTION_DOT><MEAN_MOTION_DDOT>0</MEAN_MOTION_DDOT></tleParameters></data></segment></body></omm>
<omm id="CCSDS_OMM_VERS" version="2.0">
<header><CREATION_DATE/><ORIGINATOR/></header><body><segment><metadata><OBJECT_NAME>IRIDIUM 17</OBJECT_NAME><OBJECT_ID>1997-034B</OBJECT_ID><CENTER_NAME>EARTH</CENTER_NAME><REF_FRAME>TEME</REF_FRAME><TIME_SYSTEM>UTC</TIME_SYSTEM><MEAN_ELEMENT_THEORY>SGP4</MEAN_ELEMENT_THEORY></metadata><data><meanElements><EPOCH>2025-02-25T14:48:07.839360</EPOCH><MEAN_MOTION>14.37650674</MEAN_MOTION><ECCENTRICITY>.0003101</ECCENTRICITY><INCLINATION>86.3916</INCLINATION><RA_OF_ASC_NODE>281.6991</RA_OF_ASC_NODE><ARG_OF_PERICENTER>57.7409</ARG_OF_PERICENTER><MEAN_ANOMALY>302.4089</MEAN_ANOMALY></meanElements><tleParameters><EPHEMERIS_TYPE>0</EPHEMERIS_TYPE><CLASSIFICATION_TYPE>U</CLASSIFICATION_TYPE><NORAD_CAT_ID>24870</NORAD_CAT_ID><ELEMENT_SET_NO>999</ELEMENT_SET_NO><REV_AT_EPOCH>44755</REV_AT_EPOCH><BSTAR>.29683E-3</BSTAR><MEAN_MOTION_DOT>.91E-5</MEAN_MOTION_DOT><MEAN_MOTION_DDOT>0</MEAN_MOTION_DDOT></tleParameters></data></segment></body></omm>
<omm id="CCSDS_OMM_VERS" version="2.0">
<header><CREATION_DATE/><ORIGINATOR/></header><body><segment><metadata><OBJECT_NAME>IRIDIUM 920</OBJECT_NAME><OBJECT_ID>1997-034C</OBJECT_ID><CENTER_NAME>EARTH</CENTER_NAME><REF_FRAME>TEME</REF_FRAME><TIME_SYSTEM>UTC</TIME_SYSTEM><MEAN_ELEMENT_THEORY>SGP4</MEAN_ELEMENT_THEORY></metadata><data><meanElements><EPOCH>2025-02-25T19:22:35.490144</EPOCH><MEAN_MOTION>14.41352537</MEAN_MOTION><ECCENTRICITY>.0013598</ECCENTRICITY><INCLINATION>86.3918</INCLINATION><RA_OF_ASC_NODE>261.0799</RA_OF_ASC_NODE><ARG_OF_PERICENTER>89.5037</ARG_OF_PERICENTER><MEAN_ANOMALY>270.7721</MEAN_ANOMALY></meanElements><tleParameters><EPHEMERIS_TYPE>0</EPHEMERIS_TYPE><CLASSIFICATION_TYPE>U</CLASSIFICATION_TYPE><NORAD_CAT_ID>24871</NORAD_CAT_ID><ELEMENT_SET_NO>999</ELEMENT_SET_NO><REV_AT_EPOCH>45079</REV_AT_EPOCH><BSTAR>.29585E-3</BSTAR><MEAN_MOTION_DOT>.978E-5</MEAN_MOTION_DOT><MEAN_MOTION_DDOT>0</MEAN_MOTION_DDOT></tleParameters></data></segment></body></omm>

</ndm>
