IRIDIUM 7               
1 24793U 97020B   25056.53756809  .00001107  00000+0  37614-3 0  9996
2 24793  86.3952 223.6446 0002284  95.6283 264.5174 14.35782255456091
IRIDIUM 5               
1 24795U 97020D   25056.49879759  .00013066  00000+0  11149-2 0  9994
2 24795  86.3933 135.1889 0112612 177.8609 182.3126 14.92730527468794
IRIDIUM 4               
1 24796U 97020E   25056.86994833  .00001051  00000+0  35034-3 0  9998
2 24796  86.3956 220.4561 0002042  95.8925 264.2505 14.36692506456510
IRIDIUM 914             
1 24836U 97030A   25056.55780563  .00001340  00000+0  41393-3 0  9999
2 24836  86.3914 229.5262 0001398 144.8445 215.2847 14.40680634453158
IRIDIUM 16              
1 24841U 97030F   25056.62886387  .00001037  00000+0  33296-3 0  9990
2 24841  86.3980 252.1345 0004230  80.6820 279.4857 14.38534113450969
IRIDIUM 911             
1 24842U 97030G   25056.61516062  .00001482  00000+0  39819-3 0  9991
2 24842  86.4408 251.0252 0016168 107.4217 252.8756 14.47392744458943
IRIDIUM 17              
1 24870U 97034B   25056.61675740  .00000910  00000+0  29683-3 0  9998
2 24870  86.3916 281.6991 0003101  57.7409 302.4089 14.37650674447553
IRIDIUM 920             
1 24871U 97034C   25056.80735521  .00000978  00000+0  29585-3 0  9999
2 24871  86.3918 261.0799 0013598  89.5037 270.7721 14.41352537450797
